[
    {
        "street": "Moose",
        "number": "6233",
        "city": "Emiliano Zapata",
        "state": "Mexico",
        "postal_code": "55690"
    },
    {
        "street": "Mcguire",
        "number": "0034",
        "city": "San Miguel",
        "state": "Mexico",
        "postal_code": "51700"
    },
    {
        "street": "Del Mar",
        "number": "9",
        "city": "Guadalupe",
        "state": "Mexico",
        "postal_code": "52107"
    },
    {
        "street": "Bartelt",
        "number": "9",
        "city": "San Pedro",
        "state": "Jalisco",
        "postal_code": "48744"
    },
    {
        "street": "Westport",
        "number": "56",
        "city": "La Loma",
        "state": "Jalisco",
        "postal_code": "47685"
    },
    {
        "street": "Sycamore",
        "number": "57",
        "city": "San Sebastian",
        "state": "Mexico",
        "postal_code": "51950"
    },
    {
        "street": "Heath",
        "number": "6",
        "city": "La Ca√±ada",
        "state": "Mexico",
        "postal_code": "53570"
    },
    {
        "street": "Clove",
        "number": "57",
        "city": "San Antonio",
        "state": "Jalisco",
        "postal_code": "47336"
    },
    {
        "street": "Blue Bill Park",
        "number": "8",
        "city": "Emiliano Zapata",
        "state": "Oaxaca",
        "postal_code": "70805"
    },
    {
        "street": "Columbus",
        "number": "61",
        "city": "San Martin",
        "state": "Mexico",
        "postal_code": "56199"
    },
    {
        "street": "Marquette",
        "number": "6",
        "city": "Independencia",
        "state": "Mexico",
        "postal_code": "56617"
    },
    {
        "street": "Redwing",
        "number": "95817",
        "city": "San Francisco",
        "state": "Mexico",
        "postal_code": "51016"
    },
    {
        "street": "Ronald Regan",
        "number": "1340",
        "city": "Santa Maria",
        "state": "Jalisco",
        "postal_code": "48324"
    },
    {
        "street": "Monterey",
        "number": "81",
        "city": "Benito Juarez",
        "state": "Mexico",
        "postal_code": "57000"
    },
    {
        "street": "Anderson",
        "number": "6",
        "city": "Emiliano Zapata",
        "state": "Jalisco",
        "postal_code": "48892"
    },
    {
        "street": "Columbus",
        "number": "1939",
        "city": "Magisterial",
        "state": "Jalisco",
        "postal_code": "47207"
    },
    {
        "street": "Express",
        "number": "63689",
        "city": "La Palma",
        "state": "Mexico",
        "postal_code": "52600"
    },
    {
        "street": "Warner",
        "number": "9382",
        "city": "Independencia",
        "state": "Mexico",
        "postal_code": "56617"
    },
    {
        "street": "Union",
        "number": "2",
        "city": "Loma Bonita",
        "state": "Mexico",
        "postal_code": "52740"
    },
    {
        "street": "Green Ridge",
        "number": "06",
        "city": "Santiago",
        "state": "Mexico",
        "postal_code": "54784"
    }
]